#dP2022 12  9 12  0  0.00000000      96 __u+U ITR00 EXT  IAC
## 2239 475200.00000000   900.00000000 59922 0.5000000000000
+  116   C07C08C09C10C11C12C13C14C16C19C20C21C22C23C24C25C26
+        C27C28C29C30C32C33C34C35C36C37C38C39C40C41C42C43C44
+        C45C46E01E02E03E04E05E07E08E09E10E12E13E14E15E18E19
+        E21E24E25E26E27E30E31E33E34E36G01G02G03G04G05G06G07
+        G08G09G10G11G12G13G14G15G16G17G18G19G20G21G22G23G24
+        G25G26G27G29G30G31G32J02J03J04R01R02R03R04R05R07R08
+        R09R11R12R13R14R15R17R18R19R20R21R22R24R25  0  0  0
++         8 10 10 10  9 11  9  8 10  8  8  8  9  9  7  6  9
++         7  9  8  8  9 10  8  9  8 10  9  8 11  6  8  9  8
++         8  9  8  8  7  8  8  8  7  7  9  7  7  7  7  7  8
++         8  9  8  8  7  8  9  7  7  7  7  8  6  8  7  7  7
++         7  8  8  7  7  7  8  8  7  8  7  8  8  7  7  6  8
++         8  7  8  8  7  9  7 10 10  9  9  8  8  7  7  8  8
++        10  7  7  9  8  7  7  7  8  9  8  7  9 10  0  0  0
%c M  cc GPS ccc cccc cccc cccc cccc ccccc ccccc ccccc ccccc
%c cc cc ccc ccc cccc cccc cccc cccc ccccc ccccc ccccc ccccc
%f  0.0000000  0.000000000  0.00000000000  0.000000000000000
%f  0.0000000  0.000000000  0.00000000000  0.000000000000000
%i    0    0    0    0      0      0      0      0         0
%i    0    0    0    0      0      0      0      0         0
/* IAC                                ULTRA-RAPID PREDICTION
/* S/V CLOCKS ARE ALIGNED TO GNSS TIME                      
/* G:C1WC2W R:C1PC2P E:C1XC5X C:C2IC6I J:C1CC2S             
/* PCV:IGS20_2233 OL/AL:FES2004  NONE     YN ORB:CoN CLK:CoN
*  2022 12 09 19  0  0.00000000
PC07 -10644.637472  40718.752263   -499.777386     98.601952
PC08   1598.978428  28595.236552  31029.825773    521.204259
PC09  -5482.457794  24670.160170 -33433.359459   -786.830481
PC10  -4725.785059  41200.191872   6193.263168     54.395114
PC11  21325.399837   5755.451320  17146.455029   -245.322310
PC12   3773.666266  14949.702854  23304.944416    338.376443
PC13   7755.961481  32402.575814  26164.884216    154.062493
PC14  13048.796358  11088.544824 -22012.361992    250.526391
PC16 -19151.324908  23719.527157 -29070.537554    104.316209
PC19 -15973.204079   -167.772171  22899.787686   -905.270844
PC20  -8893.458055 -18792.329073  18631.504533    811.215866
PC21  -4134.517196  27449.764568  -2773.935523   -928.383829
PC22 -14188.509871  19432.173288  14114.979469   -748.955654
PC23  14796.923448  -8126.953257  22220.667901   -872.269074
PC24  17497.787640  21150.907656  -5132.466184   -696.790568
PC25  23313.603893   7855.863181  13184.413699     37.054553
PC26   3638.858011  20735.298580 -18352.716786    -47.535639
PC27   5933.579220 -17158.154206 -21204.232120     63.764865
PC28  22370.526240 -13671.455866  -9559.714571     45.371879
PC29 -26318.478288   2469.820010  -8946.993227     51.535582
PC30 -14047.840393 -10988.003752 -21469.846193      1.175933
PC32   3966.209993 -27492.960185   2702.636496   -688.441483
PC33  15978.906824    179.577040 -22879.340250   -896.688156
PC34  15152.779789  10354.663375  21009.775422     57.471526
PC35 -22903.681158  13782.532254   8066.758922    125.647614
PC36 -23183.506053  -8937.848489 -12673.170342   -779.779699
PC37  -1793.886379 -20264.442411  19097.084093   -887.993169
PC38  -6087.058711  25461.213888  33128.432555     43.825354
PC39 -22221.398123  24249.512965 -26490.210218     -1.035543
PC40 -17557.416300  37993.712355  -4174.471830     -9.844174
PC41  14312.251889 -19029.016365 -14503.951307   -362.728957
PC42   8220.677983  19792.032835 -17827.549914   -819.745360
PC43  26127.945602  -1782.456593   9605.937769     29.264764
PC44  -5544.978250  17508.294353  21012.316040    139.871317
PC45 -14395.747737   8402.536775 -22381.600101    -32.649432
PC46 -18601.603316 -20488.526268   3399.735665    -18.478137
PE01 -17874.876881 -12650.822812 -19908.288521   -572.594438
PE02  17906.204518  12388.189851  20060.554090      7.572833
PE03  20412.250456    351.225434 -21445.486450   -628.160133
PE04 -23151.042279  16833.575829   7547.388889    -10.556618
PE05   5588.566224  17732.419424 -23037.974296   -116.675715
PE07  12277.073523 -24511.152266  11167.391555     -5.849231
PE08  23090.516043 -16884.871086  -7628.954593      0.019169
PE09 -12421.717184  24489.675835 -11045.135674   -758.164213
PE10 -16259.671046  10928.441068  22185.683593   -496.628843
PE12 -24189.843043   5174.513959  16269.357840   -323.034669
PE13   5783.813657 -15059.099760 -24808.071883    430.422222
PE14   3919.652164  15594.638628  17478.278989     79.919165
PE15  24360.844407  -4970.491920 -16051.541501    702.034705
PE18  -1542.523240 -22866.110026 -22686.136741   -647.506149
PE19 -18899.340540  -2906.203034  22595.707032  -3786.121353
PE21 -11790.387237 -26588.774160  -5467.867665   -499.386341
PE24  -2320.357881  26048.025681 -13909.159094   -992.658329
PE25  11624.796231  26734.191967   5174.813841   -594.554677
PE26 -16733.064840 -16180.384654 -18270.990436  -1886.248855
PE27   1534.498733 -26453.986322  13176.851329   -459.226887
PE30  14239.705798  -9907.458109  23973.135907  -1064.707580
PE31 -13805.605569  10767.559795 -23862.028515   -510.239318
PE33 -28431.802380  -7967.722294  -2093.713364   -455.558391
PE34  28488.798083   7825.345550   1937.914749    -18.778271
PE36  15966.234669  16215.113236  18936.505359   -472.931538
PG01 -20089.950532 -14185.564725 -10775.804728    240.026955
PG02  22212.024821  11592.705420   9120.480768   -633.873890
PG03 -12241.469231 -20799.677130  11090.415270   -375.213473
PG04 -12059.628455  -9567.506948  21654.583322    -71.619936
PG05   5629.651113  25817.831431   1755.681371   -107.437799
PG06 -16069.296054   8313.214222  19541.653516    536.708755
PG07 -25897.649720  -6212.891120  -2791.471423    276.717211
PG08  -2135.697998 -17297.525816 -19974.904028    -97.837547
PG09 -19773.677889   1646.950211  17598.151931   -256.074276
PG10  12616.839983  -9302.458255 -21226.949344    -15.382070
PG11  -3357.892453  14864.240237  21764.473462    -53.904124
PG12  10337.575269  22200.822356  10138.716172   -313.974860
PG13  -6942.728514  19114.345614 -17159.217204    439.090187
PG14 -14243.255115   6781.130192 -21348.699702    -70.827996
PG15   4853.873113  17313.121253 -19915.250591     -5.490405
PG16    476.155821 -25676.955376   5446.678670   -526.346754
PG17 -22481.304229  12272.758920  -6745.380921    684.607331
PG18  25595.684707   4397.901809  -5916.973972    -52.776935
PG19 -19523.336484  17380.994937   3598.305144    248.317228
PG20  -1603.030890  22766.689312  13792.118360    464.666132
PG21 -14274.023046 -15018.221677 -16437.573021    154.233543
PG22  16959.481234 -19240.534639   6961.233830    381.340079
PG23  15705.181817   3063.745456 -21226.853854     -0.170413
PG24  17488.748632  14732.029998 -14197.338977     23.225052
PG25  15372.633757  13282.910627  16951.945067    400.491121
PG26   6538.278306 -19931.438030  15991.828957    238.007797
PG27   8964.324613 -20899.501349 -13596.698764    157.532222
PG29  18509.331733   1699.114043  18960.707731   -572.878587
PG30 -22539.519475   3258.793939 -13784.460997   -535.660246
PG31  15273.457328  -9422.324771  19562.237904   -202.754850
PG32  21121.062169 -15184.635790  -4650.870389   -323.954265
PJ02 -19985.985536  25870.366663 -21991.336151     -0.280785
PJ03 -29498.042761  25902.683528  20672.210939     -6.309096
PJ04 -28978.984427  28105.148911  18157.991512    114.768976
PR01  10681.694080 -22961.633867  -3088.502036     19.265146
PR02   1117.123468 -20457.480397  15185.466984    -23.407298
PR03  -9229.685977  -6113.165308  23016.764060     68.778329
PR04 -14061.678200  11300.143679  18065.843772    167.970420
PR05 -11465.747104  22576.708154   3220.991514    104.267056
PR07   9506.409374   5435.644788 -23005.858899     45.780943
PR08  14066.169877 -11471.858927 -17853.174637    -68.473934
PR09  11759.085030  21153.881938  -7924.318058     92.104951
PR11  14246.887616   2065.080882  21062.401829     15.958578
PR12   1651.428999 -14402.464063  21004.571967     23.510698
PR13 -10699.142173 -21107.221130   9498.147840    -29.772858
PR14 -17813.977901 -15673.259317  -9373.184633     24.086307
PR15 -13802.874988  -1175.349711 -21402.364719     92.442806
PR17 -21276.951528  -3709.578234 -13522.638868    585.468323
PR18 -25082.185137   3938.048092   2730.734600     55.996278
PR19 -17170.916097   8806.794988  16684.097261   -213.950128
PR20   4234.525573   9959.368528  23109.983466    -83.651724
PR21  22235.761932   3054.371885  12155.517071   -356.189098
PR22  25042.696152  -3365.901578  -3419.560408     19.471107
PR24  -5322.527899 -10156.139524 -22759.705019    131.687258
PR25  20858.822099   5108.465801  13792.641828     48.464417
EOF
